[{"OBJECT_NAME":"CENTISPACE-1 S15","OBJECT_ID":"2025-007K","EPOCH":"2026-03-09T03:15:01.145952","MEAN_MOTION":13.84028477,"ECCENTRICITY":0.00099311,"INCLINATION":54.9863,"RA_OF_ASC_NODE":282.4469,"ARG_OF_PERICENTER":276.248,"MEAN_ANOMALY":83.7347,"EPHEMERIS_TYPE":0,"CLASSIFICATION_TYPE":"U","NORAD_CAT_ID":62584,"ELEMENT_SET_NO":999,"REV_AT_EPOCH":6091,"BSTAR":0.00013462575,"MEAN_MOTION_DOT":9.0e-8,"MEAN_MOTION_DDOT":0},{"OBJECT_NAME":"FENGYUN 1C DEB","OBJECT_ID":"1999-025EEU","EPOCH":"2026-03-09T22:33:06.640416","MEAN_MOTION":14.00791835,"ECCENTRICITY":0.00811928,"INCLINATION":99.0753,"RA_OF_ASC_NODE":130.8559,"ARG_OF_PERICENTER":108.5241,"MEAN_ANOMALY":252.4767,"EPHEMERIS_TYPE":0,"CLASSIFICATION_TYPE":"U","NORAD_CAT_ID":37060,"ELEMENT_SET_NO":999,"REV_AT_EPOCH":63927,"BSTAR":0.00049783474,"MEAN_MOTION_DOT":7.21e-6,"MEAN_MOTION_DDOT":0}]
